0 IRIDIUM 33 DEB
1 34705U 97051LC  13281.41372978  .00006036  00000-0  20858-2 0  5904
2 34705 086.4936 159.0650 0060699 011.7457 113.9126 14.34615550240449
0 IRIDIUM 33 DEB
1 34705U 97051LC  13284.13977365  .00009163  00000-0  31657-2 0  5911
2 34705 086.4949 157.9565 0060435 003.4925 152.5021 14.34667489240835
0 IRIDIUM 33 DEB
1 34705U 97051LC  13285.38901884  .00007972  00000-0  27533-2 0  5927
2 34705 086.4954 157.4490 0060252 359.5454 124.5291 14.34686554241015
0 IRIDIUM 33 DEB
1 34705U 97051LC  13286.62621465  .00008090  00000-0  27934-2 0  5937
2 34705 086.4954 156.9458 0060066 355.7566 034.2743 14.34704510241188
0 IRIDIUM 33 DEB
1 34705U 97051LC  13289.09091102  .00011913  00000-0  41109-2 0  5949
2 34705 086.4952 155.9425 0059744 348.0305 164.1643 14.34756403241546
0 IRIDIUM 33 DEB
1 34705U 97051LC  13289.90914471  .00010908  00000-0  37635-2 0  5955
2 34705 086.4950 155.6094 0059584 345.5963 070.2277 14.34768686241655
0 IRIDIUM 33 DEB
1 34705U 97051LC  13290.95700413  .00010098  00000-0  34828-2 0  5963
2 34705 086.4949 155.1832 0059450 342.3247 082.4880 14.34789996241809
0 IRIDIUM 33 DEB
1 34705U 97051LC  13292.08979406  .00009205  00000-0  31739-2 0  5976
2 34705 086.4952 154.7225 0059263 338.8651 173.4259 14.34810013241979
0 IRIDIUM 33 DEB
1 34705U 97051LC  13293.88379778  .00010381  00000-0  35784-2 0  5983
2 34705 086.4940 153.9914 0058927 333.1503 079.9809 14.34838374242222
0 IRIDIUM 33 DEB
1 34705U 97051LC  13295.08866229  .00011033  00000-0  38019-2 0  5999
2 34705 086.4941 153.5006 0058710 329.3505 183.5294 14.34859100242400
